{
  "links" : {
    "next" : "https://api.nasa.gov/neo/rest/v1/feed?start_date=2014-03-09&end_date=2014-03-09&detailed=true&api_key=t0TVs3DtDT2H8Oy2Zy8m2eVrNsAVKAexjcZXUckd",
    "prev" : "https://api.nasa.gov/neo/rest/v1/feed?start_date=2014-03-07&end_date=2014-03-07&detailed=true&api_key=t0TVs3DtDT2H8Oy2Zy8m2eVrNsAVKAexjcZXUckd",
    "self" : "https://api.nasa.gov/neo/rest/v1/feed?start_date=2014-03-08&end_date=2014-03-08&detailed=true&api_key=t0TVs3DtDT2H8Oy2Zy8m2eVrNsAVKAexjcZXUckd"
  },
  "element_count" : 12,
  "near_earth_objects" : {
    "2014-03-08" : [ {
      "links" : {
        "self" : "https://api.nasa.gov/neo/rest/v1/neo/3662283?api_key=t0TVs3DtDT2H8Oy2Zy8m2eVrNsAVKAexjcZXUckd"
      },
      "neo_reference_id" : "3662283",
      "name" : "(2014 DN7)",
      "nasa_jpl_url" : "http://ssd.jpl.nasa.gov/sbdb.cgi?sstr=3662283",
      "absolute_magnitude_h" : 20.7,
      "estimated_diameter" : {
        "kilometers" : {
          "estimated_diameter_min" : 0.1925550782,
          "estimated_diameter_max" : 0.4305662442
        },
        "meters" : {
          "estimated_diameter_min" : 192.5550781879,
          "estimated_diameter_max" : 430.566244241
        },
        "miles" : {
          "estimated_diameter_min" : 0.1196481415,
          "estimated_diameter_max" : 0.2675413778
        },
        "feet" : {
          "estimated_diameter_min" : 631.7424027221,
          "estimated_diameter_max" : 1412.6189567557
        }
      },
      "is_potentially_hazardous_asteroid" : false,
      "close_approach_data" : [ {
        "close_approach_date" : "2014-03-08",
        "epoch_date_close_approach" : 1394265600000,
        "relative_velocity" : {
          "kilometers_per_second" : "17.4309711929",
          "kilometers_per_hour" : "62751.4962944688",
          "miles_per_hour" : "38991.3394614159"
        },
        "miss_distance" : {
          "astronomical" : "0.265947832",
          "lunar" : "103.453704834",
          "kilometers" : "39785228",
          "miles" : "24721394"
        },
        "orbiting_body" : "Earth"
      } ],
      "orbital_data" : {
        "orbit_id" : "16",
        "orbit_determination_date" : "2017-04-06 08:42:24",
        "orbit_uncertainty" : "1",
        "minimum_orbit_intersection" : ".121499",
        "jupiter_tisserand_invariant" : "3.843",
        "epoch_osculation" : "2458000.5",
        "eccentricity" : ".652898985976238",
        "semi_major_axis" : "1.706178029009095",
        "inclination" : "23.89342408449383",
        "ascending_node_longitude" : "145.0359277010589",
        "orbital_period" : "814.0197547413511",
        "perihelion_distance" : ".5922161239741206",
        "perihelion_argument" : "110.7202097503916",
        "aphelion_distance" : "2.82013993404407",
        "perihelion_time" : "2457596.873084063575",
        "mean_anomaly" : "178.5038862887091",
        "mean_motion" : ".442249709424297",
        "equinox" : "J2000"
      }
    }, {
      "links" : {
        "self" : "https://api.nasa.gov/neo/rest/v1/neo/3666540?api_key=t0TVs3DtDT2H8Oy2Zy8m2eVrNsAVKAexjcZXUckd"
      },
      "neo_reference_id" : "3666540",
      "name" : "(2014 FX32)",
      "nasa_jpl_url" : "http://ssd.jpl.nasa.gov/sbdb.cgi?sstr=3666540",
      "absolute_magnitude_h" : 25.0,
      "estimated_diameter" : {
        "kilometers" : {
          "estimated_diameter_min" : 0.02658,
          "estimated_diameter_max" : 0.0594346868
        },
        "meters" : {
          "estimated_diameter_min" : 26.58,
          "estimated_diameter_max" : 59.4346868419
        },
        "miles" : {
          "estimated_diameter_min" : 0.0165160412,
          "estimated_diameter_max" : 0.0369309908
        },
        "feet" : {
          "estimated_diameter_min" : 87.2047272,
          "estimated_diameter_max" : 194.9956979785
        }
      },
      "is_potentially_hazardous_asteroid" : false,
      "close_approach_data" : [ {
        "close_approach_date" : "2014-03-08",
        "epoch_date_close_approach" : 1394265600000,
        "relative_velocity" : {
          "kilometers_per_second" : "8.6473347094",
          "kilometers_per_hour" : "31130.4049539576",
          "miles_per_hour" : "19343.22301153"
        },
        "miss_distance" : {
          "astronomical" : "0.0151141092",
          "lunar" : "5.8793883324",
          "kilometers" : "2261038.5",
          "miles" : "1404944.25"
        },
        "orbiting_body" : "Earth"
      } ],
      "orbital_data" : {
        "orbit_id" : "23",
        "orbit_determination_date" : "2017-04-06 08:41:56",
        "orbit_uncertainty" : "5",
        "minimum_orbit_intersection" : ".0016083",
        "jupiter_tisserand_invariant" : "3.942",
        "epoch_osculation" : "2458000.5",
        "eccentricity" : ".4816960433662048",
        "semi_major_axis" : "1.783296677172447",
        "inclination" : "3.779921229370805",
        "ascending_node_longitude" : "172.3184833165424",
        "orbital_period" : "869.8288888297083",
        "perihelion_distance" : ".9242897236303791",
        "perihelion_argument" : "320.704816845922",
        "aphelion_distance" : "2.642303630714515",
        "perihelion_time" : "2457567.925248271205",
        "mean_anomaly" : "179.0316608498546",
        "mean_motion" : ".4138745040813187",
        "equinox" : "J2000"
      }
    }, {
      "links" : {
        "self" : "https://api.nasa.gov/neo/rest/v1/neo/3694127?api_key=t0TVs3DtDT2H8Oy2Zy8m2eVrNsAVKAexjcZXUckd"
      },
      "neo_reference_id" : "3694127",
      "name" : "(2014 UV34)",
      "nasa_jpl_url" : "http://ssd.jpl.nasa.gov/sbdb.cgi?sstr=3694127",
      "absolute_magnitude_h" : 24.9,
      "estimated_diameter" : {
        "kilometers" : {
          "estimated_diameter_min" : 0.0278326768,
          "estimated_diameter_max" : 0.0622357573
        },
        "meters" : {
          "estimated_diameter_min" : 27.8326768072,
          "estimated_diameter_max" : 62.2357573367
        },
        "miles" : {
          "estimated_diameter_min" : 0.0172944182,
          "estimated_diameter_max" : 0.0386714948
        },
        "feet" : {
          "estimated_diameter_min" : 91.3145593761,
          "estimated_diameter_max" : 204.1855621004
        }
      },
      "is_potentially_hazardous_asteroid" : false,
      "close_approach_data" : [ {
        "close_approach_date" : "2014-03-08",
        "epoch_date_close_approach" : 1394265600000,
        "relative_velocity" : {
          "kilometers_per_second" : "4.937599838",
          "kilometers_per_hour" : "17775.359416844",
          "miles_per_hour" : "11044.9170776496"
        },
        "miss_distance" : {
          "astronomical" : "0.2233048525",
          "lunar" : "86.8655853271",
          "kilometers" : "33405930",
          "miles" : "20757484"
        },
        "orbiting_body" : "Earth"
      } ],
      "orbital_data" : {
        "orbit_id" : "8",
        "orbit_determination_date" : "2017-04-06 08:37:59",
        "orbit_uncertainty" : "6",
        "minimum_orbit_intersection" : ".0187586",
        "jupiter_tisserand_invariant" : "5.781",
        "epoch_osculation" : "2458000.5",
        "eccentricity" : ".1253407575569182",
        "semi_major_axis" : "1.063451456488757",
        "inclination" : "8.158647959916641",
        "ascending_node_longitude" : "206.5499406243045",
        "orbital_period" : "400.5667828872016",
        "perihelion_distance" : ".9301576453074484",
        "perihelion_argument" : "101.397989797507",
        "aphelion_distance" : "1.196745267670066",
        "perihelion_time" : "2458078.781206446907",
        "mean_anomaly" : "289.6466019529579",
        "mean_motion" : ".8987265429379723",
        "equinox" : "J2000"
      }
    } ]
  }
}